{
  "type": "FeatureCollection",
  "features": [
    {
      "type": "Feature",
      "properties": {
        "norad_id": 44333,
        "name": "AT&T T-16",
        "group": "intelsat",
        "lat": 0.03463413852266174,
        "lon": 132.3634862609122,
        "alt_km": 35781.929380449765,
        "timestamp": "2025-12-20T09:36:01.299783+00:00",
        "meta_object_name": "AT&T T-16",
        "meta_object_id": "2019-034A",
        "meta_epoch": "2025-12-19T13:25:39.897984",
        "meta_mean_motion": 1.00270126,
        "meta_eccentricity": 0.00011499,
        "meta_inclination": 0.0216,
        "meta_ra_of_asc_node": 60.6149,
        "meta_arg_of_pericenter": 88.5847,
        "meta_mean_anomaly": 39.7646,
        "meta_ephemeris_type": 0,
        "meta_classification_type": "U",
        "meta_norad_cat_id": 44333,
        "meta_element_set_no": 999,
        "meta_rev_at_epoch": 2383,
        "meta_bstar": 0,
        "meta_mean_motion_dot": -9.1e-07,
        "meta_mean_motion_ddot": 0,
        "tle_line1": "1 44333U 19034A   25353.55948956 -.00000091  00000+0  00000+0 0  9992",
        "tle_line2": "2 44333   0.0216  60.6149 0001149  88.5847  39.7646  1.00270126 23839"
      },
      "geometry": {
        "type": "Point",
        "coordinates": [
          132.3634862609122,
          0.03463413852266174
        ]
      }
    },
    {
      "type": "Feature",
      "properties": {
        "norad_id": 44476,
        "name": "INTELSAT 39 (IS-39)",
        "group": "intelsat",
        "lat": -0.035259226401811276,
        "lon": -64.81670947237588,
        "alt_km": 35790.79763628539,
        "timestamp": "2025-12-20T09:36:01.299795+00:00",
        "meta_object_name": "INTELSAT 39 (IS-39)",
        "meta_object_id": "2019-049B",
        "meta_epoch": "2025-12-20T03:15:13.442400",
        "meta_mean_motion": 1.00270893,
        "meta_eccentricity": 0.0001164,
        "meta_inclination": 0.0185,
        "meta_ra_of_asc_node": 341.084,
        "meta_arg_of_pericenter": 158.4294,
        "meta_mean_anomaly": 60.2151,
        "meta_ephemeris_type": 0,
        "meta_classification_type": "U",
        "meta_norad_cat_id": 44476,
        "meta_element_set_no": 999,
        "meta_rev_at_epoch": 2333,
        "meta_bstar": 0,
        "meta_mean_motion_dot": 5.8e-07,
        "meta_mean_motion_ddot": 0,
        "tle_line1": "1 44476U 19049B   25354.13557225  .00000058  00000+0  00000+0 0  9998",
        "tle_line2": "2 44476   0.0185 341.0840 0001164 158.4294  60.2151  1.00270893 23332"
      },
      "geometry": {
        "type": "Point",
        "coordinates": [
          -64.81670947237588,
          -0.035259226401811276
        ]
      }
    },
    {
      "type": "Feature",
      "properties": {
        "norad_id": 46114,
        "name": "GALAXY 30 (G-30)",
        "group": "intelsat",
        "lat": 0.02696432238873278,
        "lon": 108.23979134029794,
        "alt_km": 35793.83141085699,
        "timestamp": "2025-12-20T09:36:01.299807+00:00",
        "meta_object_name": "GALAXY 30 (G-30)",
        "meta_object_id": "2020-056C",
        "meta_epoch": "2025-12-20T04:45:38.640096",
        "meta_mean_motion": 1.00273216,
        "meta_eccentricity": 0.0002025,
        "meta_inclination": 0.0016,
        "meta_ra_of_asc_node": 355.0076,
        "meta_arg_of_pericenter": 275.2816,
        "meta_mean_anomaly": 125.1734,
        "meta_ephemeris_type": 0,
        "meta_classification_type": "U",
        "meta_norad_cat_id": 46114,
        "meta_element_set_no": 999,
        "meta_rev_at_epoch": 1949,
        "meta_bstar": 0,
        "meta_mean_motion_dot": 6e-07,
        "meta_mean_motion_ddot": 0,
        "tle_line1": "1 46114U 20056C   25354.19836389  .00000060  00000+0  00000+0 0  9999",
        "tle_line2": "2 46114   0.0016 355.0076 0002025 275.2816 125.1734  1.00273216 19499"
      },
      "geometry": {
        "type": "Point",
        "coordinates": [
          108.23979134029794,
          0.02696432238873278
        ]
      }
    },
    {
      "type": "Feature",
      "properties": {
        "norad_id": 54026,
        "name": "GALAXY 33 (G-33)",
        "group": "intelsat",
        "lat": 0.03517330910144312,
        "lon": 100.22854491926907,
        "alt_km": 35792.64860951505,
        "timestamp": "2025-12-20T09:36:01.299818+00:00",
        "meta_object_name": "GALAXY 33 (G-33)",
        "meta_object_id": "2022-128A",
        "meta_epoch": "2025-12-20T04:45:38.640096",
        "meta_mean_motion": 1.00271193,
        "meta_eccentricity": 0.0001546,
        "meta_inclination": 0.0153,
        "meta_ra_of_asc_node": 39.0928,
        "meta_arg_of_pericenter": 229.5851,
        "meta_mean_anomaly": 118.7712,
        "meta_ephemeris_type": 0,
        "meta_classification_type": "U",
        "meta_norad_cat_id": 54026,
        "meta_element_set_no": 999,
        "meta_rev_at_epoch": 1194,
        "meta_bstar": 0,
        "meta_mean_motion_dot": 1.03e-06,
        "meta_mean_motion_ddot": 0,
        "tle_line1": "1 54026U 22128A   25354.19836389  .00000103  00000+0  00000+0 0  9990",
        "tle_line2": "2 54026   0.0153  39.0928 0001546 229.5851 118.7712  1.00271193 11943"
      },
      "geometry": {
        "type": "Point",
        "coordinates": [
          100.22854491926907,
          0.03517330910144312
        ]
      }
    },
    {
      "type": "Feature",
      "properties": {
        "norad_id": 54027,
        "name": "GALAXY 34 (G-34)",
        "group": "intelsat",
        "lat": 0.049159904989037335,
        "lon": 104.27910784010756,
        "alt_km": 35794.45171043043,
        "timestamp": "2025-12-20T09:36:01.299829+00:00",
        "meta_object_name": "GALAXY 34 (G-34)",
        "meta_object_id": "2022-128B",
        "meta_epoch": "2025-12-20T04:45:38.640096",
        "meta_mean_motion": 1.00267808,
        "meta_eccentricity": 0.0001837,
        "meta_inclination": 0.0229,
        "meta_ra_of_asc_node": 8.4334,
        "meta_arg_of_pericenter": 254.8895,
        "meta_mean_anomaly": 128.1832,
        "meta_ephemeris_type": 0,
        "meta_classification_type": "U",
        "meta_norad_cat_id": 54027,
        "meta_element_set_no": 999,
        "meta_rev_at_epoch": 1211,
        "meta_bstar": 0,
        "meta_mean_motion_dot": 0,
        "meta_mean_motion_ddot": 0,
        "tle_line1": "1 54027U 22128B   25354.19836389  .00000000  00000+0  00000+0 0  9997",
        "tle_line2": "2 54027   0.0229   8.4334 0001837 254.8895 128.1832  1.00267808 12117"
      },
      "geometry": {
        "type": "Point",
        "coordinates": [
          104.27910784010756,
          0.049159904989037335
        ]
      }
    },
    {
      "type": "Feature",
      "properties": {
        "norad_id": 54243,
        "name": "GALAXY 31 (G-31)",
        "group": "intelsat",
        "lat": 0.02128909647673243,
        "lon": 112.22787867336956,
        "alt_km": 35791.91369668377,
        "timestamp": "2025-12-20T09:36:01.299841+00:00",
        "meta_object_name": "GALAXY 31 (G-31)",
        "meta_object_id": "2022-153A",
        "meta_epoch": "2025-12-20T02:23:03.438240",
        "meta_mean_motion": 1.00271063,
        "meta_eccentricity": 0.0001369,
        "meta_inclination": 0.0164,
        "meta_ra_of_asc_node": 76.5416,
        "meta_arg_of_pericenter": 202.5346,
        "meta_mean_anomaly": 84.6283,
        "meta_ephemeris_type": 0,
        "meta_classification_type": "U",
        "meta_norad_cat_id": 54243,
        "meta_element_set_no": 999,
        "meta_rev_at_epoch": 533,
        "meta_bstar": 0,
        "meta_mean_motion_dot": 3.7e-07,
        "meta_mean_motion_ddot": 0,
        "tle_line1": "1 54243U 22153A   25354.09934535  .00000037  00000+0  00000+0 0  9996",
        "tle_line2": "2 54243   0.0164  76.5416 0001369 202.5346  84.6283  1.00271063  5333"
      },
      "geometry": {
        "type": "Point",
        "coordinates": [
          112.22787867336956,
          0.02128909647673243
        ]
      }
    },
    {
      "type": "Feature",
      "properties": {
        "norad_id": 54244,
        "name": "GALAXY 32 (G-32)",
        "group": "intelsat",
        "lat": 0.02516192170355636,
        "lon": 142.23498534180143,
        "alt_km": 35794.377997729964,
        "timestamp": "2025-12-20T09:36:01.299853+00:00",
        "meta_object_name": "GALAXY 32 (G-32)",
        "meta_object_id": "2022-153B",
        "meta_epoch": "2025-12-19T12:21:45.204192",
        "meta_mean_motion": 1.00271304,
        "meta_eccentricity": 0.0001932,
        "meta_inclination": 0.0112,
        "meta_ra_of_asc_node": 8.1777,
        "meta_arg_of_pericenter": 310.6888,
        "meta_mean_anomaly": 223.9419,
        "meta_ephemeris_type": 0,
        "meta_classification_type": "U",
        "meta_norad_cat_id": 54244,
        "meta_element_set_no": 999,
        "meta_rev_at_epoch": 1134,
        "meta_bstar": 0,
        "meta_mean_motion_dot": -1.5e-06,
        "meta_mean_motion_ddot": 0,
        "tle_line1": "1 54244U 22153B   25353.51510653 -.00000150  00000+0  00000+0 0  9991",
        "tle_line2": "2 54244   0.0112   8.1777 0001932 310.6888 223.9419  1.00271304 11341"
      },
      "geometry": {
        "type": "Point",
        "coordinates": [
          142.23498534180143,
          0.02516192170355636
        ]
      }
    }
  ]
}